[{"OBJECT_NAME":"OBJECT D","OBJECT_ID":"2024-173D","EPOCH":"2026-03-09T23:30:29.956896","MEAN_MOTION":15.27005733,"ECCENTRICITY":0.00090093,"INCLINATION":97.3606,"RA_OF_ASC_NODE":149.3901,"ARG_OF_PERICENTER":241.6081,"MEAN_ANOMALY":118.425,"EPHEMERIS_TYPE":0,"CLASSIFICATION_TYPE":"U","NORAD_CAT_ID":61230,"ELEMENT_SET_NO":999,"REV_AT_EPOCH":8130,"BSTAR":0.00072064626,"MEAN_MOTION_DOT":0.00019078,"MEAN_MOTION_DDOT":0},{"OBJECT_NAME":"STARLINK-32245","OBJECT_ID":"2024-222V","EPOCH":"2026-03-09T12:41:04.639488","MEAN_MOTION":15.27577866,"ECCENTRICITY":0.0001484,"INCLINATION":42.9989,"RA_OF_ASC_NODE":137.1483,"ARG_OF_PERICENTER":283.7594,"MEAN_ANOMALY":76.3092,"EPHEMERIS_TYPE":0,"CLASSIFICATION_TYPE":"U","NORAD_CAT_ID":62133,"ELEMENT_SET_NO":999,"REV_AT_EPOCH":7288,"BSTAR":0.00082597,"MEAN_MOTION_DOT":0.00022535,"MEAN_MOTION_DDOT":0}]
